{"type": "FeatureCollection", "features": [ {"type": "Feature", "properties": {"norad_id": 66919, "name": "HULIANWANG DIGUI-109", "group": "last-30-days", "lat": 20.502405449714736, "lon": 85.7990387461015, "alt_km": 875.081736585802, "timestamp": "2025-12-24T22:42:20.747315+00:00", "meta": {"OBJECT_NAME": "HULIANWANG DIGUI-109", "OBJECT_ID": "2025-285E", "EPOCH": "2025-12-24T07:11:58.088832", "MEAN_MOTION": 14.0372766, "ECCENTRICITY": 0.00079196, "INCLINATION": 50.0076, "RA_OF_ASC_NODE": 70.1376, "ARG_OF_PERICENTER": 330.9385, "MEAN_ANOMALY": 29.1077, "EPHEMERIS_TYPE": 0, "CLASSIFICATION_TYPE": "U", "NORAD_CAT_ID": 66919, "ELEMENT_SET_NO": 999, "REV_AT_EPOCH": 253, "BSTAR": 0.00012220835, "MEAN_MOTION_DOT": 4.2e-07, "MEAN_MOTION_DDOT": 0}, "tle": {"line1": "1 66919U 25285E   25358.29997788  .00000042  00000+0  12221-3 0  9991", "line2": "2 66919  50.0076  70.1376 0007919 330.9385  29.1077 14.03727660  2534"}}, "geometry": {"type": "Point", "coordinates": [85.7990387461015, 20.502405449714736]}}, {"type": "Feature", "properties": {"norad_id": 66920, "name": "HULIANWANG DIGUI-110", "group": "last-30-days", "lat": 23.15992797775066, "lon": 88.54628212410053, "alt_km": 876.1836668440601, "timestamp": "2025-12-24T22:42:20.747327+00:00", "meta": {"OBJECT_NAME": "HULIANWANG DIGUI-110", "OBJECT_ID": "2025-285F", "EPOCH": "2025-12-24T07:10:53.337216", "MEAN_MOTION": 14.03683845, "ECCENTRICITY": 0.00056311, "INCLINATION": 50.012, "RA_OF_ASC_NODE": 70.1408, "ARG_OF_PERICENTER": 328.0297, "MEAN_ANOMALY": 32.0265, "EPHEMERIS_TYPE": 0, "CLASSIFICATION_TYPE": "U", "NORAD_CAT_ID": 66920, "ELEMENT_SET_NO": 999, "REV_AT_EPOCH": 253, "BSTAR": 0.00011242826, "MEAN_MOTION_DOT": 2.6e-07, "MEAN_MOTION_DDOT": 0}, "tle": {"line1": "1 66920U 25285F   25358.29922844  .00000026  00000+0  11243-3 0  9999", "line2": "2 66920  50.0120  70.1408 0005631 328.0297  32.0265 14.03683845  2539"}}, "geometry": {"type": "Point", "coordinates": [88.54628212410053, 23.15992797775066]}}, {"type": "Feature", "properties": {"norad_id": 66921, "name": "HULIANWANG DIGUI-111", "group": "last-30-days", "lat": 25.801458264641585, "lon": 91.44056916088171, "alt_km": 875.5486274292643, "timestamp": "2025-12-24T22:42:20.747337+00:00", "meta": {"OBJECT_NAME": "HULIANWANG DIGUI-111", "OBJECT_ID": "2025-285G", "EPOCH": "2025-12-24T07:09:47.756160", "MEAN_MOTION": 14.03633407, "ECCENTRICITY": 0.00067129, "INCLINATION": 50.0124, "RA_OF_ASC_NODE": 70.1403, "ARG_OF_PERICENTER": 331.8355, "MEAN_ANOMALY": 28.2185, "EPHEMERIS_TYPE": 0, "CLASSIFICATION_TYPE": "U", "NORAD_CAT_ID": 66921, "ELEMENT_SET_NO": 999, "REV_AT_EPOCH": 253, "BSTAR": 0.00011603744, "MEAN_MOTION_DOT": 3.2e-07, "MEAN_MOTION_DDOT": 0}, "tle": {"line1": "1 66921U 25285G   25358.29846940  .00000032  00000+0  11604-3 0  9990", "line2": "2 66921  50.0124  70.1403 0006712 331.8355  28.2185 14.03633407  2534"}}, "geometry": {"type": "Point", "coordinates": [91.44056916088171, 25.801458264641585]}}, {"type": "Feature", "properties": {"norad_id": 66922, "name": "HULIANWANG DIGUI-112", "group": "last-30-days", "lat": 29.646755716655385, "lon": 96.0210575849275, "alt_km": 874.5447574468517, "timestamp": "2025-12-24T22:42:20.747347+00:00", "meta": {"OBJECT_NAME": "HULIANWANG DIGUI-112", "OBJECT_ID": "2025-285H", "EPOCH": "2025-12-24T07:08:13.538688", "MEAN_MOTION": 14.0366342, "ECCENTRICITY": 0.00065301, "INCLINATION": 50.0097, "RA_OF_ASC_NODE": 70.1266, "ARG_OF_PERICENTER": 342.4587, "MEAN_ANOMALY": 17.6091, "EPHEMERIS_TYPE": 0, "CLASSIFICATION_TYPE": "U", "NORAD_CAT_ID": 66922, "ELEMENT_SET_NO": 999, "REV_AT_EPOCH": 253, "BSTAR": 0.00012284293, "MEAN_MOTION_DOT": 4.3e-07, "MEAN_MOTION_DDOT": 0}, "tle": {"line1": "1 66922U 25285H   25358.29737892  .00000043  00000+0  12284-3 0  9993", "line2": "2 66922  50.0097  70.1266 0006530 342.4587  17.6091 14.03663420  2530"}}, "geometry": {"type": "Point", "coordinates": [96.0210575849275, 29.646755716655385]}}, {"type": "Feature", "properties": {"norad_id": 66923, "name": "HULIANWANG DIGUI-113", "group": "last-30-days", "lat": 33.735331856135225, "lon": 101.56642536329181, "alt_km": 875.0067703495961, "timestamp": "2025-12-24T22:42:20.747363+00:00", "meta": {"OBJECT_NAME": "HULIANWANG DIGUI-113", "OBJECT_ID": "2025-285J", "EPOCH": "2025-12-24T07:06:28.283616", "MEAN_MOTION": 14.03701338, "ECCENTRICITY": 0.00051334, "INCLINATION": 50.0096, "RA_OF_ASC_NODE": 70.1218, "ARG_OF_PERICENTER": 337.0031, "MEAN_ANOMALY": 23.0643, "EPHEMERIS_TYPE": 0, "CLASSIFICATION_TYPE": "U", "NORAD_CAT_ID": 66923, "ELEMENT_SET_NO": 999, "REV_AT_EPOCH": 253, "BSTAR": 0.00011954108, "MEAN_MOTION_DOT": 3.8e-07, "MEAN_MOTION_DDOT": 0}, "tle": {"line1": "1 66923U 25285J   25358.29616069  .00000038  00000+0  11954-3 0  9993", "line2": "2 66923  50.0096  70.1218 0005133 337.0031  23.0643 14.03701338  2534"}}, "geometry": {"type": "Point", "coordinates": [101.56642536329181, 33.735331856135225]}}, {"type": "Feature", "properties": {"norad_id": 66924, "name": "CZ-8A R/B", "group": "last-30-days", "lat": -36.17895816599595, "lon": 26.325251583219615, "alt_km": 874.0493592399653, "timestamp": "2025-12-24T22:42:20.747373+00:00", "meta": {"OBJECT_NAME": "CZ-8A R/B", "OBJECT_ID": "2025-285K", "EPOCH": "2025-12-24T04:30:14.442624", "MEAN_MOTION": 14.30506161, "ECCENTRICITY": 0.0119247, "INCLINATION": 50.0084, "RA_OF_ASC_NODE": 67.4242, "ARG_OF_PERICENTER": 147.101, "MEAN_ANOMALY": 213.74, "EPHEMERIS_TYPE": 0, "CLASSIFICATION_TYPE": "U", "NORAD_CAT_ID": 66924, "ELEMENT_SET_NO": 999, "REV_AT_EPOCH": 256, "BSTAR": 5.8886571e-05, "MEAN_MOTION_DOT": 1e-08, "MEAN_MOTION_DDOT": 0}, "tle": {"line1": "1 66924U 25285K   25358.18766716  .00000001  00000+0  58887-4 0  9994", "line2": "2 66924  50.0084  67.4242 0119247 147.1010 213.7400 14.30506161  2566"}}, "geometry": {"type": "Point", "coordinates": [26.325251583219615, -36.17895816599595]}}, {"type": "Feature", "properties": {"norad_id": 66925, "name": "STARLINK-35945", "group": "last-30-days", "lat": -3.086183671143438, "lon": 171.8151588138095, "alt_km": 377.12775135326956, "timestamp": "2025-12-24T22:42:20.747383+00:00", "meta": {"OBJECT_NAME": "STARLINK-35945", "OBJECT_ID": "2025-286A", "EPOCH": "2025-12-24T06:00:02.000160", "MEAN_MOTION": 15.67070508, "ECCENTRICITY": 0.00014246, "INCLINATION": 53.1596, "RA_OF_ASC_NODE": 352.9094, "ARG_OF_PERICENTER": 87.9776, "MEAN_ANOMALY": 130.492, "EPHEMERIS_TYPE": 0, "CLASSIFICATION_TYPE": "U", "NORAD_CAT_ID": 66925, "ELEMENT_SET_NO": 999, "REV_AT_EPOCH": 384, "BSTAR": -0.020462017, "MEAN_MOTION_DOT": -0.01964505, "MEAN_MOTION_DDOT": 0}, "tle": {"line1": "1 66925U 25286A   25358.25002315 -.01964505  00000+0 -20462-1 0  9998", "line2": "2 66925  53.1596 352.9094 0001424  87.9776 130.4920 15.67070508  3849"}}, "geometry": {"type": "Point", "coordinates": [171.8151588138095, -3.086183671143438]}}, {"type": "Feature", "properties": {"norad_id": 66926, "name": "STARLINK-35942", "group": "last-30-days", "lat": 6.651233690576082, "lon": 164.5078581533964, "alt_km": 380.93021611960285, "timestamp": "2025-12-24T22:42:20.747396+00:00", "meta": {"OBJECT_NAME": "STARLINK-35942", "OBJECT_ID": "2025-286B", "EPOCH": "2025-12-24T06:00:02.000160", "MEAN_MOTION": 15.65330894, "ECCENTRICITY": 0.0001333, "INCLINATION": 53.1594, "RA_OF_ASC_NODE": 352.9253, "ARG_OF_PERICENTER": 91.2377, "MEAN_ANOMALY": 119.5678, "EPHEMERIS_TYPE": 0, "CLASSIFICATION_TYPE": "U", "NORAD_CAT_ID": 66926, "ELEMENT_SET_NO": 999, "REV_AT_EPOCH": 384, "BSTAR": -0.02284295, "MEAN_MOTION_DOT": -0.02033441, "MEAN_MOTION_DDOT": 0}, "tle": {"line1": "1 66926U 25286B   25358.25002315 -.02033441  00000+0 -22843-1 0  9991", "line2": "2 66926  53.1594 352.9253 0001333  91.2377 119.5678 15.65330894  3842"}}, "geometry": {"type": "Point", "coordinates": [164.5078581533964, 6.651233690576082]}}, {"type": "Feature", "properties": {"norad_id": 66927, "name": "STARLINK-35943", "group": "last-30-days", "lat": 5.121765969080513, "lon": 165.6661720822306, "alt_km": 381.186380879687, "timestamp": "2025-12-24T22:42:20.747408+00:00", "meta": {"OBJECT_NAME": "STARLINK-35943", "OBJECT_ID": "2025-286C", "EPOCH": "2025-12-24T06:00:02.000160", "MEAN_MOTION": 15.65332819, "ECCENTRICITY": 0.00014378, "INCLINATION": 53.1596, "RA_OF_ASC_NODE": 352.9211, "ARG_OF_PERICENTER": 90.036, "MEAN_ANOMALY": 122.6852, "EPHEMERIS_TYPE": 0, "CLASSIFICATION_TYPE": "U", "NORAD_CAT_ID": 66927, "ELEMENT_SET_NO": 999, "REV_AT_EPOCH": 384, "BSTAR": -0.022872716, "MEAN_MOTION_DOT": -0.02035983, "MEAN_MOTION_DDOT": 0}, "tle": {"line1": "1 66927U 25286C   25358.25002315 -.02035983  00000+0 -22873-1 0  9998", "line2": "2 66927  53.1596 352.9211 0001437  90.0360 122.6852 15.65332819  3841"}}, "geometry": {"type": "Point", "coordinates": [165.6661720822306, 5.121765969080513]}}, {"type": "Feature", "properties": {"norad_id": 66928, "name": "STARLINK-35944", "group": "last-30-days", "lat": 8.174615417284894, "lon": 163.34398691549444, "alt_km": 380.6899916220191, "timestamp": "2025-12-24T22:42:20.747420+00:00", "meta": {"OBJECT_NAME": "STARLINK-35944", "OBJECT_ID": "2025-286D", "EPOCH": "2025-12-24T06:00:02.000160", "MEAN_MOTION": 15.65324449, "ECCENTRICITY": 0.00014714, "INCLINATION": 53.1593, "RA_OF_ASC_NODE": 352.9286, "ARG_OF_PERICENTER": 86.9183, "MEAN_ANOMALY": 121.974, "EPHEMERIS_TYPE": 0, "CLASSIFICATION_TYPE": "U", "NORAD_CAT_ID": 66928, "ELEMENT_SET_NO": 999, "REV_AT_EPOCH": 384, "BSTAR": -0.022755225, "MEAN_MOTION_DOT": -0.02026245, "MEAN_MOTION_DDOT": 0}, "tle": {"line1": "1 66928U 25286D   25358.25002315 -.02026245  00000+0 -22755-1 0  9999", "line2": "2 66928  53.1593 352.9286 0001471  86.9183 121.9740 15.65324449  3844"}}, "geometry": {"type": "Point", "coordinates": [163.34398691549444, 8.174615417284894]}}]}